[{"OBJECT_NAME":"KUIPER-00225","OBJECT_ID":"2026-030W","EPOCH":"2026-03-09T16:40:08.528160","MEAN_MOTION":15.35937709,"ECCENTRICITY":0.00044584,"INCLINATION":51.8808,"RA_OF_ASC_NODE":219.1029,"ARG_OF_PERICENTER":39.1442,"MEAN_ANOMALY":320.9866,"EPHEMERIS_TYPE":0,"CLASSIFICATION_TYPE":"U","NORAD_CAT_ID":67784,"ELEMENT_SET_NO":999,"REV_AT_EPOCH":509,"BSTAR":0.00071609689,"MEAN_MOTION_DOT":0.00025142,"MEAN_MOTION_DDOT":0},{"OBJECT_NAME":"OBJECT B","OBJECT_ID":"2021-015B","EPOCH":"2026-03-09T15:14:34.210752","MEAN_MOTION":15.41258714,"ECCENTRICITY":0.0021689,"INCLINATION":97.1346,"RA_OF_ASC_NODE":105.7301,"ARG_OF_PERICENTER":273.1755,"MEAN_ANOMALY":86.7011,"EPHEMERIS_TYPE":0,"CLASSIFICATION_TYPE":"U","NORAD_CAT_ID":47700,"ELEMENT_SET_NO":999,"REV_AT_EPOCH":27907,"BSTAR":0.00033462,"MEAN_MOTION_DOT":0.00013956,"MEAN_MOTION_DDOT":0}]
